[{"OBJECT_NAME":"IRIDIUM 138","OBJECT_ID":"2017-083B","EPOCH":"2026-03-09T21:30:43.184160","MEAN_MOTION":14.34218949,"ECCENTRICITY":0.00023523,"INCLINATION":86.4035,"RA_OF_ASC_NODE":3.1874,"ARG_OF_PERICENTER":77.6293,"MEAN_ANOMALY":282.5166,"EPHEMERIS_TYPE":0,"CLASSIFICATION_TYPE":"U","NORAD_CAT_ID":43071,"ELEMENT_SET_NO":999,"REV_AT_EPOCH":42990,"BSTAR":0.00011242147,"MEAN_MOTION_DOT":3.35e-6,"MEAN_MOTION_DDOT":0},{"OBJECT_NAME":"DMSP 5D-2 F13 DEB","OBJECT_ID":"1995-015AA","EPOCH":"2026-03-09T13:00:20.412288","MEAN_MOTION":14.32605749,"ECCENTRICITY":0.001269,"INCLINATION":98.6249,"RA_OF_ASC_NODE":97.9439,"ARG_OF_PERICENTER":211.888,"MEAN_ANOMALY":148.1536,"EPHEMERIS_TYPE":0,"CLASSIFICATION_TYPE":"U","NORAD_CAT_ID":40413,"ELEMENT_SET_NO":999,"REV_AT_EPOCH":57308,"BSTAR":0.0011199921,"MEAN_MOTION_DOT":3.001e-5,"MEAN_MOTION_DDOT":0}]
